[{"OBJECT_NAME":"ONEWEB-0414","OBJECT_ID":"2021-132Y","EPOCH":"2025-12-12T01:24:55.162656","MEAN_MOTION":13.18685322,"ECCENTRICITY":0.0001919,"INCLINATION":87.9185,"RA_OF_ASC_NODE":12.5984,"ARG_OF_PERICENTER":99.7473,"MEAN_ANOMALY":260.3876,"EPHEMERIS_TYPE":0,"CLASSIFICATION_TYPE":"U","NORAD_CAT_ID":50491,"ELEMENT_SET_NO":999,"REV_AT_EPOCH":19696,"BSTAR":4.3283549e-5,"MEAN_MOTION_DOT":3.0e-7,"MEAN_MOTION_DDOT":0},{"OBJECT_NAME":"ONEWEB-0417","OBJECT_ID":"2021-132Z","EPOCH":"2025-12-12T03:26:03.583392","MEAN_MOTION":13.1868584,"ECCENTRICITY":0.00016289,"INCLINATION":87.9186,"RA_OF_ASC_NODE":12.6159,"ARG_OF_PERICENTER":100.7334,"MEAN_ANOMALY":259.3982,"EPHEMERIS_TYPE":0,"CLASSIFICATION_TYPE":"U","NORAD_CAT_ID":50492,"ELEMENT_SET_NO":999,"REV_AT_EPOCH":19695,"BSTAR":-4.1274239e-5,"MEAN_MOTION_DOT":-3.0e-8,"MEAN_MOTION_DDOT":0},{"OBJECT_NAME":"ONEWEB-0418","OBJECT_ID":"2021-132AA","EPOCH":"2025-12-12T07:18:37.666368","MEAN_MOTION":13.1868541,"ECCENTRICITY":0.00015126,"INCLINATION":87.9186,"RA_OF_ASC_NODE":12.5678,"ARG_OF_PERICENTER":109.7477,"MEAN_ANOMALY":250.3818,"EPHEMERIS_TYPE":0,"CLASSIFICATION_TYPE":"U","NORAD_CAT_ID":50493,"ELEMENT_SET_NO":999,"REV_AT_EPOCH":19703,"BSTAR":0.00016395716,"MEAN_MOTION_DOT":7.8e-7,"MEAN_MOTION_DDOT":0},{"OBJECT_NAME":"ONEWEB-0419","OBJECT_ID":"2021-132AB","EPOCH":"2025-12-12T07:44:57.823008","MEAN_MOTION":13.18686542,"ECCENTRICITY":0.00014628,"INCLINATION":87.9183,"RA_OF_ASC_NODE":12.5641,"ARG_OF_PERICENTER":96.0091,"MEAN_ANOMALY":264.1208,"EPHEMERIS_TYPE":0,"CLASSIFICATION_TYPE":"U","NORAD_CAT_ID":50494,"ELEMENT_SET_NO":999,"REV_AT_EPOCH":19695,"BSTAR":0.00020747139,"MEAN_MOTION_DOT":9.5e-7,"MEAN_MOTION_DDOT":0},{"OBJECT_NAME":"ONEWEB-0420","OBJECT_ID":"2021-132AC","EPOCH":"2025-12-12T01:27:16.972704","MEAN_MOTION":13.1868415,"ECCENTRICITY":0.00019092,"INCLINATION":87.9186,"RA_OF_ASC_NODE":12.6283,"ARG_OF_PERICENTER":90.8556,"MEAN_ANOMALY":269.2795,"EPHEMERIS_TYPE":0,"CLASSIFICATION_TYPE":"U","NORAD_CAT_ID":50495,"ELEMENT_SET_NO":999,"REV_AT_EPOCH":19691,"BSTAR":-2.9380238e-5,"MEAN_MOTION_DOT":1.0e-8,"MEAN_MOTION_DDOT":0},{"OBJECT_NAME":"ONEWEB-0421","OBJECT_ID":"2021-132AD","EPOCH":"2025-12-12T03:07:03.242496","MEAN_MOTION":13.18685148,"ECCENTRICITY":0.00020228,"INCLINATION":87.9184,"RA_OF_ASC_NODE":12.6071,"ARG_OF_PERICENTER":101.2691,"MEAN_ANOMALY":258.8668,"EPHEMERIS_TYPE":0,"CLASSIFICATION_TYPE":"U","NORAD_CAT_ID":50496,"ELEMENT_SET_NO":999,"REV_AT_EPOCH":19696,"BSTAR":4.4904982e-5,"MEAN_MOTION_DOT":3.1e-7,"MEAN_MOTION_DDOT":0},{"OBJECT_NAME":"ONEWEB-0424","OBJECT_ID":"2021-132AE","EPOCH":"2025-12-12T07:37:50.621664","MEAN_MOTION":13.18686633,"ECCENTRICITY":0.00014159,"INCLINATION":87.9183,"RA_OF_ASC_NODE":12.5655,"ARG_OF_PERICENTER":88.9049,"MEAN_ANOMALY":271.2245,"EPHEMERIS_TYPE":0,"CLASSIFICATION_TYPE":"U","NORAD_CAT_ID":50497,"ELEMENT_SET_NO":999,"REV_AT_EPOCH":19701,"BSTAR":0.00012392878,"MEAN_MOTION_DOT":6.2e-7,"MEAN_MOTION_DDOT":0},{"OBJECT_NAME":"ONEWEB-0426","OBJECT_ID":"2021-132AF","EPOCH":"2025-12-12T03:02:17.871072","MEAN_MOTION":13.18686117,"ECCENTRICITY":0.00020648,"INCLINATION":87.9184,"RA_OF_ASC_NODE":12.5948,"ARG_OF_PERICENTER":113.959,"MEAN_ANOMALY":246.1759,"EPHEMERIS_TYPE":0,"CLASSIFICATION_TYPE":"U","NORAD_CAT_ID":50498,"ELEMENT_SET_NO":999,"REV_AT_EPOCH":19693,"BSTAR":0.00019913514,"MEAN_MOTION_DOT":9.1e-7,"MEAN_MOTION_DDOT":0},{"OBJECT_NAME":"ONEWEB-0427","OBJECT_ID":"2021-132AG","EPOCH":"2025-12-12T07:35:27.715200","MEAN_MOTION":13.18685644,"ECCENTRICITY":0.00016267,"INCLINATION":87.9183,"RA_OF_ASC_NODE":12.5449,"ARG_OF_PERICENTER":100.9216,"MEAN_ANOMALY":259.2099,"EPHEMERIS_TYPE":0,"CLASSIFICATION_TYPE":"U","NORAD_CAT_ID":50499,"ELEMENT_SET_NO":999,"REV_AT_EPOCH":19698,"BSTAR":-0.00028600481,"MEAN_MOTION_DOT":-1.0e-6,"MEAN_MOTION_DDOT":0},{"OBJECT_NAME":"ONEWEB-0429","OBJECT_ID":"2021-132AH","EPOCH":"2025-12-12T07:16:27.598080","MEAN_MOTION":13.18685885,"ECCENTRICITY":0.0001859,"INCLINATION":87.9185,"RA_OF_ASC_NODE":12.5795,"ARG_OF_PERICENTER":90.1602,"MEAN_ANOMALY":269.9743,"EPHEMERIS_TYPE":0,"CLASSIFICATION_TYPE":"U","NORAD_CAT_ID":50500,"ELEMENT_SET_NO":999,"REV_AT_EPOCH":19695,"BSTAR":0.00010463519,"MEAN_MOTION_DOT":5.4e-7,"MEAN_MOTION_DDOT":0},{"OBJECT_NAME":"ONEWEB-0430","OBJECT_ID":"2021-132AJ","EPOCH":"2025-12-12T03:21:18.222336","MEAN_MOTION":13.18686673,"ECCENTRICITY":0.00016662,"INCLINATION":87.9186,"RA_OF_ASC_NODE":12.6075,"ARG_OF_PERICENTER":86.597,"MEAN_ANOMALY":273.5353,"EPHEMERIS_TYPE":0,"CLASSIFICATION_TYPE":"U","NORAD_CAT_ID":50501,"ELEMENT_SET_NO":999,"REV_AT_EPOCH":19697,"BSTAR":2.6682335e-5,"MEAN_MOTION_DOT":2.3e-7,"MEAN_MOTION_DDOT":0},{"OBJECT_NAME":"ONEWEB-0432","OBJECT_ID":"2021-132AK","EPOCH":"2025-12-12T07:45:47.664576","MEAN_MOTION":13.18677236,"ECCENTRICITY":9.685e-5,"INCLINATION":87.9179,"RA_OF_ASC_NODE":12.543,"ARG_OF_PERICENTER":112.8312,"MEAN_ANOMALY":247.2923,"EPHEMERIS_TYPE":0,"CLASSIFICATION_TYPE":"U","NORAD_CAT_ID":50502,"ELEMENT_SET_NO":999,"REV_AT_EPOCH":19695,"BSTAR":0.00014363393,"MEAN_MOTION_DOT":7.0e-7,"MEAN_MOTION_DDOT":0},{"OBJECT_NAME":"ONEWEB-0440","OBJECT_ID":"2021-132AL","EPOCH":"2025-12-12T07:28:20.357472","MEAN_MOTION":13.18685994,"ECCENTRICITY":0.00022133,"INCLINATION":87.9182,"RA_OF_ASC_NODE":12.5633,"ARG_OF_PERICENTER":93.9546,"MEAN_ANOMALY":266.1839,"EPHEMERIS_TYPE":0,"CLASSIFICATION_TYPE":"U","NORAD_CAT_ID":50503,"ELEMENT_SET_NO":999,"REV_AT_EPOCH":19694,"BSTAR":8.9516651e-5,"MEAN_MOTION_DOT":4.8e-7,"MEAN_MOTION_DDOT":0},{"OBJECT_NAME":"ONEWEB-0450","OBJECT_ID":"2021-132AM","EPOCH":"2025-12-12T07:19:01.322688","MEAN_MOTION":13.18685006,"ECCENTRICITY":0.00018513,"INCLINATION":87.918,"RA_OF_ASC_NODE":12.5866,"ARG_OF_PERICENTER":86.0355,"MEAN_ANOMALY":274.0989,"EPHEMERIS_TYPE":0,"CLASSIFICATION_TYPE":"U","NORAD_CAT_ID":50504,"ELEMENT_SET_NO":999,"REV_AT_EPOCH":19697,"BSTAR":-0.00072587151,"MEAN_MOTION_DOT":-2.73e-6,"MEAN_MOTION_DDOT":0},{"OBJECT_NAME":"ONEWEB-0410","OBJECT_ID":"2022-012A","EPOCH":"2025-12-12T04:28:33.015936","MEAN_MOTION":13.17648505,"ECCENTRICITY":0.00020724,"INCLINATION":87.913,"RA_OF_ASC_NODE":43.0281,"ARG_OF_PERICENTER":142.0712,"MEAN_ANOMALY":218.0565,"EPHEMERIS_TYPE":0,"CLASSIFICATION_TYPE":"U","NORAD_CAT_ID":51622,"ELEMENT_SET_NO":999,"REV_AT_EPOCH":18907,"BSTAR":-0.00047551339,"MEAN_MOTION_DOT":-1.72e-6,"MEAN_MOTION_DDOT":0},{"OBJECT_NAME":"ONEWEB-0411","OBJECT_ID":"2022-012B","EPOCH":"2025-12-12T05:49:17.825088","MEAN_MOTION":13.10370982,"ECCENTRICITY":0.00013393,"INCLINATION":87.8806,"RA_OF_ASC_NODE":73.534,"ARG_OF_PERICENTER":88.8752,"MEAN_ANOMALY":271.2529,"EPHEMERIS_TYPE":0,"CLASSIFICATION_TYPE":"U","NORAD_CAT_ID":51623,"ELEMENT_SET_NO":999,"REV_AT_EPOCH":18480,"BSTAR":0.0017423708,"MEAN_MOTION_DOT":6.21e-6,"MEAN_MOTION_DDOT":0},{"OBJECT_NAME":"ONEWEB-0415","OBJECT_ID":"2022-012C","EPOCH":"2025-12-12T05:44:31.861824","MEAN_MOTION":13.10371853,"ECCENTRICITY":0.00014267,"INCLINATION":87.8806,"RA_OF_ASC_NODE":73.5364,"ARG_OF_PERICENTER":98.2265,"MEAN_ANOMALY":261.9025,"EPHEMERIS_TYPE":0,"CLASSIFICATION_TYPE":"U","NORAD_CAT_ID":51624,"ELEMENT_SET_NO":999,"REV_AT_EPOCH":18480,"BSTAR":0.002013003,"MEAN_MOTION_DOT":7.15e-6,"MEAN_MOTION_DDOT":0}]
