ONEWEB-0414             
1 50491U 21132Y   25346.05897179  .00000030  00000+0  43284-4 0  9991
2 50491  87.9185  12.5984 0001919  99.7473 260.3876 13.18685322196969
ONEWEB-0417             
1 50492U 21132Z   25346.14309703 -.00000003  00000+0 -41274-4 0  9992
2 50492  87.9186  12.6159 0001628 100.7334 259.3982 13.18685840196952
ONEWEB-0418             
1 50493U 21132AA  25346.30460262  .00000078  00000+0  16396-3 0  9995
2 50493  87.9186  12.5678 0001512 109.7477 250.3818 13.18685410197039
ONEWEB-0419             
1 50494U 21132AB  25346.32289147  .00000095  00000+0  20747-3 0  9993
2 50494  87.9183  12.5641 0001462  96.0091 264.1208 13.18686542196954
ONEWEB-0420             
1 50495U 21132AC  25346.06061311  .00000001  00000+0 -29380-4 0  9997
2 50495  87.9186  12.6283 0001909  90.8556 269.2795 13.18684150196911
ONEWEB-0421             
1 50496U 21132AD  25346.12989864  .00000031  00000+0  44905-4 0  9999
2 50496  87.9184  12.6071 0002022 101.2691 258.8668 13.18685148196965
ONEWEB-0424             
1 50497U 21132AE  25346.31794701  .00000062  00000+0  12393-3 0  9994
2 50497  87.9183  12.5655 0001415  88.9049 271.2245 13.18686633197012
ONEWEB-0426             
1 50498U 21132AF  25346.12659573  .00000091  00000+0  19914-3 0  9999
2 50498  87.9184  12.5948 0002064 113.9590 246.1759 13.18686117196938
ONEWEB-0427             
1 50499U 21132AG  25346.31629300 -.00000100  00000+0 -28600-3 0  9991
2 50499  87.9183  12.5449 0001626 100.9216 259.2099 13.18685644196989
ONEWEB-0429             
1 50500U 21132AH  25346.30309720  .00000054  00000+0  10464-3 0  9999
2 50500  87.9185  12.5795 0001859  90.1602 269.9743 13.18685885196953
ONEWEB-0430             
1 50501U 21132AJ  25346.13979424  .00000023  00000+0  26682-4 0  9991
2 50501  87.9186  12.6075 0001666  86.5970 273.5353 13.18686673196976
ONEWEB-0432             
1 50502U 21132AK  25346.32346834  .00000070  00000+0  14363-3 0  9990
2 50502  87.9179  12.5430 0000968 112.8312 247.2923 13.18677236196954
ONEWEB-0440             
1 50503U 21132AL  25346.31134673  .00000048  00000+0  89517-4 0  9995
2 50503  87.9182  12.5633 0002213  93.9546 266.1839 13.18685994196942
ONEWEB-0450             
1 50504U 21132AM  25346.30487642 -.00000273  00000+0 -72587-3 0  9992
2 50504  87.9180  12.5866 0001851  86.0355 274.0989 13.18685006196978
ONEWEB-0410             
1 51622U 22012A   25346.18649324 -.00000172  00000+0 -47551-3 0  9996
2 51622  87.9130  43.0281 0002072 142.0712 218.0565 13.17648505189074
ONEWEB-0411             
1 51623U 22012B   25346.24256742  .00000621  00000+0  17424-2 0  9994
2 51623  87.8806  73.5340 0001339  88.8752 271.2529 13.10370982184805
ONEWEB-0415             
1 51624U 22012C   25346.23925766  .00000715  00000+0  20130-2 0  9995
2 51624  87.8806  73.5364 0001426  98.2265 261.9025 13.10371853184808
